NORAD_CAT_ID,OBJECT_NAME,OBJECT_TYPE,EPOCH,MEAN_MOTION,ECCENTRICITY,INCLINATION,RA_OF_ASC_NODE,ARG_OF_PERICENTER,MEAN_ANOMALY,BSTAR,MEAN_MOTION_DOT,MEAN_MOTION_DDOT,TLE_LINE0,TLE_LINE1,TLE_LINE2,SEMIMAJOR_AXIS,PERIOD,APOGEE,PERIGEE,DECAYED
50207.0,STARLINK-3262,PAYLOAD,2022-06-09 00:35:21,15.08835866,0.0002121,53.2196,267.7778,41.3842,318.7311,3.39e-05,2.51e-06,0.0,0 STARLINK-3262,1 50207U 21125BD  22160.02455096  .00000251  00000-0  33900-4 0  9994,2 50207  53.2196 267.7778 0002121  41.3842 318.7311 15.08835866 27951,6917.893,95.438,541.225,538.2909999999998,0.0
50207.0,STARLINK-3262,PAYLOAD,2022-06-09 13:18:27,15.08828231,0.0001927,53.2199,265.4015,38.5054,321.6076,-5.7028e-05,-1.195e-05,0.0,0 STARLINK-3262,1 50207U 21125BD  22160.55448098 -.00001195  00000-0 -57028-4 0  9993,2 50207  53.2199 265.4015 0001927  38.5054 321.6076 15.08828231 28038,6917.916,95.438,541.114,538.448,0.0
50207.0,STARLINK-3262,PAYLOAD,2022-06-09 16:29:13,15.08832347,0.0001983,53.2194,264.8062,44.1821,315.9329,-4.93e-05,-1.073e-05,0.0,0 STARLINK-3262,1 50207U 21125BD  22160.68695904 -.00001073  00000-0 -49300-4 0  9996,2 50207  53.2194 264.8062 0001983  44.1821 315.9329 15.08832347 28057,6917.904,95.438,541.141,538.3969999999998,0.0
50207.0,STARLINK-3262,PAYLOAD,2022-06-10 13:09:13,15.0883889,0.0002009,53.2189,260.9401,42.8726,317.2423,4.5344e-05,4.34e-06,0.0,0 STARLINK-3262,1 50207U 21125BD  22161.54807349  .00000434  00000-0  45344-4 0  9992,2 50207  53.2189 260.9401 0002009  42.8726 317.2423 15.08838890 28187,6917.884,95.438,541.139,538.359,0.0
50207.0,STARLINK-3262,PAYLOAD,2022-06-10 17:55:22,15.08840772,0.0002086,53.2187,260.0482,44.1134,316.0025,6.0852e-05,6.8e-06,0.0,0 STARLINK-3262,1 50207U 21125BD  22161.74679198  .00000680  00000-0  60852-4 0  9997,2 50207  53.2187 260.0482 0002086  44.1134 316.0025 15.08840772 28219,6917.878000000002,95.438,541.186,538.3,0.0
50207.0,STARLINK-3262,PAYLOAD,2022-06-11 17:46:10,15.08836202,0.0002009,53.219,255.5876,38.5194,321.5942,5.9014e-05,6.51e-06,0.0,0 STARLINK-3262,1 50207U 21125BD  22162.74039550  .00000651  00000-0  59014-4 0  9996,2 50207  53.2190 255.5876 0002009  38.5194 321.5942 15.08836202 28365,6917.892,95.438,541.1469999999998,538.367,0.0
50207.0,STARLINK-3262,PAYLOAD,2022-06-12 12:50:47,15.08843389,0.0002038,53.2188,252.0191,38.2213,321.8924,-5.9152e-06,-3.82e-06,0.0,0 STARLINK-3262,1 50207U 21125BD  22163.53527218 -.00000382  00000-0 -59152-5 0  9994,2 50207  53.2188 252.0191 0002038  38.2213 321.8924 15.08843389 28485,6917.87,95.437,541.145,538.325,0.0
50207.0,STARLINK-3262,PAYLOAD,2022-06-12 16:01:34,15.08840001,0.0002047,53.2187,251.4247,37.4108,322.7026,-3.4259e-05,-8.33e-06,0.0,0 STARLINK-3262,1 50207U 21125BD  22163.66775507 -.00000833  00000-0 -34259-4 0  9995,2 50207  53.2187 251.4247 0002047  37.4108 322.7026 15.08840001 28507,6917.88,95.438,541.161,538.3290000000002,0.0
50207.0,STARLINK-3262,PAYLOAD,2022-06-12 22:23:06,15.0884357,0.0002035,53.2186,250.2356,37.472,322.6414,-3.3764000000000004e-05,-8.26e-06,0.0,0 STARLINK-3262,1 50207U 21125BD  22163.93271249 -.00000826  00000-0 -33764-4 0  9991,2 50207  53.2186 250.2356 0002035  37.4720 322.6414 15.08843570 28549,6917.869000000002,95.437,541.1419999999998,538.327,0.0
50207.0,STARLINK-3262,PAYLOAD,2022-06-13 12:41:34,15.08843064,0.0002094,53.2183,247.5592,38.4975,321.6166,7.279899999999999e-05,8.71e-06,0.0,0 STARLINK-3262,1 50207U 21125BD  22164.52886787  .00000871  00000-0  72799-4 0  9995,2 50207  53.2183 247.5592 0002094  38.4975 321.6166 15.08843064 28636,6917.871,95.437,541.185,538.2869999999998,0.0
50207.0,STARLINK-3262,PAYLOAD,2022-06-13 14:16:57,15.08841756,0.0002077,53.2183,247.2621,38.4815,321.6325,6.2999e-05,7.15e-06,0.0,0 STARLINK-3262,1 50207U 21125BD  22164.59510895  .00000715  00000-0  62999-4 0  9994,2 50207  53.2183 247.2621 0002077  38.4815 321.6325 15.08841756 28644,6917.875,95.437,541.177,538.303,0.0
50207.0,STARLINK-3262,PAYLOAD,2022-06-14 10:56:58,15.0883963,0.0002138,53.2178,243.3963,41.2657,318.8496,-6.0675e-05,-1.254e-05,0.0,0 STARLINK-3262,1 50207U 21125BD  22165.45623489 -.00001254  00000-0 -60675-4 0  9994,2 50207  53.2178 243.3963 0002138  41.2657 318.8496 15.08839630 28777,6917.882,95.438,541.226,538.2669999999998,0.0
50207.0,STARLINK-3262,PAYLOAD,2022-06-14 14:07:45,15.088382500000002,0.0002179,53.2179,242.8016,44.3684,315.7482,-7.1372e-05,-1.424e-05,0.0,0 STARLINK-3262,1 50207U 21125BD  22165.58871611 -.00001424  00000-0 -71372-4 0  9995,2 50207  53.2179 242.8016 0002179  44.3684 315.7482 15.08838250 28790,6917.886,95.438,541.258,538.243,0.0
50207.0,STARLINK-3262,PAYLOAD,2022-06-15 09:12:23,15.08830526,0.0002224,53.2181,239.2338,42.3871,317.7292,-6.9317e-05,-1.391e-05,0.0,0 STARLINK-3262,1 50207U 21125BD  22166.38360504 -.00001391  00000-0 -69317-4 0  9997,2 50207  53.2181 239.2338 0002224  42.3871 317.7292 15.08830526 28910,6917.909000000002,95.438,541.313,538.236,0.0
50207.0,STARLINK-3262,PAYLOAD,2022-06-15 21:55:28,15.08832346,0.0002225,53.2182,236.8547,44.4737,315.6433,-1.5841999999999996e-06,-3.14e-06,0.0,0 STARLINK-3262,1 50207U 21125BD  22166.91352431 -.00000314  00000-0 -15842-5 0  9995,2 50207  53.2182 236.8547 0002225  44.4737 315.6433 15.08832346 28995,6917.904,95.438,541.308,538.23,0.0
50207.0,STARLINK-3262,PAYLOAD,2022-06-19 10:10:54,15.08837742,0.0002149,53.2184,221.0956,37.7963,322.3179,0.00014272,1.984e-05,0.0,0 STARLINK-3262,1 50207U 21125BD  22170.42424445  .00001984  00000-0  14272-3 0  9997,2 50207  53.2184 221.0956 0002149  37.7963 322.3179 15.08837742 29525,6917.887,95.438,541.239,538.266,0.0
50207.0,STARLINK-3262,PAYLOAD,2022-06-20 10:01:41,15.088400199999995,0.0002267,53.2185,216.6351,42.4523,317.6644,7.6867e-05,9.35e-06,0.0,0 STARLINK-3262,1 50207U 21125BD  22171.41784636  .00000935  00000-0  76867-4 0  9992,2 50207  53.2185 216.6351 0002267  42.4523 317.6644 15.08840020 29674,6917.88,95.438,541.314,538.177,0.0
50207.0,STARLINK-3262,PAYLOAD,2022-06-20 19:34:00,15.08841479,0.0002238,53.2181,214.8502,37.8449,322.27,1.9879e-05,2.8e-07,0.0,0 STARLINK-3262,1 50207U 21125BD  22171.81528646  .00000028  00000-0  19879-4 0  9996,2 50207  53.2181 214.8502 0002238  37.8449 322.2700 15.08841479 29732,6917.876,95.437,541.289,538.193,0.0
50207.0,STARLINK-3262,PAYLOAD,2022-06-21 05:06:20,15.08837329,0.0002292,53.2189,213.0683,45.7466,314.3714,-7.5899e-05,-1.496e-05,0.0,0 STARLINK-3262,1 50207U 21125BD  22172.21273347 -.00001496  00000-0 -75899-4 0  9992,2 50207  53.2189 213.0683 0002292  45.7466 314.3714 15.08837329 29790,6917.889,95.438,541.339,538.168,0.0
50207.0,STARLINK-3262,PAYLOAD,2022-06-21 11:27:53,15.08831994,0.0002234,53.2186,211.8789,43.174,316.9427,-0.00011657,-2.143e-05,0.0,0 STARLINK-3262,1 50207U 21125BD  22172.47769872 -.00002143  00000-0 -11657-3 0  9994,2 50207  53.2186 211.8789 0002234  43.1740 316.9427 15.08831994 29839,6917.905,95.438,541.315,538.224,0.0
50207.0,STARLINK-3262,PAYLOAD,2022-06-21 19:24:48,15.08834433,0.0002246,53.2187,210.3923,43.2974,316.8194,-8.7602e-05,-1.682e-05,0.0,0 STARLINK-3262,1 50207U 21125BD  22172.80889736 -.00001682  00000-0 -87602-4 0  9994,2 50207  53.2187 210.3923 0002246  43.2974 316.8194 15.08834433 29883,6917.897,95.438,541.316,538.2090000000002,0.0
50207.0,STARLINK-3262,PAYLOAD,2022-06-22 11:18:40,15.08832681,0.000219,53.2181,207.4177,40.9631,319.1525,-3.6891e-06,-3.47e-06,0.0,0 STARLINK-3262,1 50207U 21125BD  22173.47129731 -.00000347  00000-0 -36891-5 0  9992,2 50207  53.2181 207.4177 0002190  40.9631 319.1525 15.08832681 29985,6917.903,95.438,541.283,538.253,0.0
50207.0,STARLINK-3262,PAYLOAD,2022-06-22 19:15:35,15.08838095,0.0002257,53.2179,205.9307,39.2796,320.8359,-1.8896e-06,-3.18e-06,0.0,0 STARLINK-3262,1 50207U 21125BD  22173.80249494 -.00000318  00000-0 -18896-5 0  9991,2 50207  53.2179 205.9307 0002257  39.2796 320.8359 15.08838095 30034,6917.886,95.438,541.313,538.19,0.0
50207.0,STARLINK-3262,PAYLOAD,2022-06-23 11:09:26,15.08835932,0.0002245,53.2176,202.9565,36.9771,323.1375,9.972e-05,1.299e-05,0.0,0 STARLINK-3262,1 50207U 21125BD  22174.46489467  .00001299  00000-0  99720-4 0  9991,2 50207  53.2176 202.9565 0002245  36.9771 323.1375 15.08835932 30130,6917.893,95.438,541.311,538.205,0.0
50207.0,STARLINK-3262,PAYLOAD,2022-06-23 19:06:22,15.08838378,0.0002254,53.2176,201.4698,37.4664,322.6485,9.3285e-05,1.197e-05,0.0,0 STARLINK-3262,1 50207U 21125BD  22174.79609377  .00001197  00000-0  93285-4 0  9998,2 50207  53.2176 201.4698 0002254  37.4664 322.6485 15.08838378 30186,6917.885,95.438,541.31,538.191,0.0
50207.0,STARLINK-3262,PAYLOAD,2022-06-24 11:00:13,15.08843086,0.0002295,53.2176,198.4961,38.5818,321.5338,8.269299999999999e-05,1.028e-05,0.0,0 STARLINK-3262,1 50207U 21125BD  22175.45849084  .00001028  00000-0  82693-4 0  9997,2 50207  53.2176 198.4961 0002295  38.5818 321.5338 15.08843086 30280,6917.871,95.437,541.3240000000002,538.148,0.0
50207.0,STARLINK-3262,PAYLOAD,2022-06-24 18:57:09,15.08845481,0.0002315,53.2176,197.0094,39.1675,320.9484,7.2109e-05,8.599999999999999e-06,0.0,0 STARLINK-3262,1 50207U 21125BD  22175.78968860  .00000860  00000-0  72109-4 0  9991,2 50207  53.2176 197.0094 0002315  39.1675 320.9484 15.08845481 30335,6917.864000000001,95.437,541.33,538.127,0.0
50207.0,STARLINK-3262,PAYLOAD,2022-06-25 01:18:41,15.08847221,0.0002328,53.2176,195.82,39.406,320.7101,6.7895e-05,7.93e-06,0.0,0 STARLINK-3262,1 50207U 21125BD  22176.05464652  .00000793  00000-0  67895-4 0  9993,2 50207  53.2176 195.8200 0002328  39.4060 320.7101 15.08847221 30377,6917.858,95.437,541.3340000000002,538.113,0.0
50207.0,STARLINK-3262,PAYLOAD,2022-06-25 10:51:00,15.08846991,0.0002356,53.2177,194.0361,39.403,320.7133,3.6041e-05,2.85e-06,0.0,0 STARLINK-3262,1 50207U 21125BD  22176.45208561  .00000285  00000-0  36041-4 0  9997,2 50207  53.2177 194.0361 0002356  39.4030 320.7133 15.08846991 30430,6917.859,95.437,541.354,538.094,0.0
